[{"OBJECT_NAME":"STARLINK-36328","OBJECT_ID":"2026-042AD","EPOCH":"2026-03-24T06:41:38.949792","MEAN_MOTION":15.80975036,"ECCENTRICITY":0.00012628,"INCLINATION":53.1578,"RA_OF_ASC_NODE":121.4137,"ARG_OF_PERICENTER":79.0644,"MEAN_ANOMALY":281.0521,"EPHEMERIS_TYPE":0,"CLASSIFICATION_TYPE":"U","NORAD_CAT_ID":68096,"ELEMENT_SET_NO":999,"REV_AT_EPOCH":438,"BSTAR":0.001132372,"MEAN_MOTION_DOT":0.00229925,"MEAN_MOTION_DDOT":0},{"OBJECT_NAME":"STARLINK-36853","OBJECT_ID":"2026-042AE","EPOCH":"2026-03-24T05:12:46.944000","MEAN_MOTION":15.80987498,"ECCENTRICITY":0.00011285,"INCLINATION":53.158,"RA_OF_ASC_NODE":121.7412,"ARG_OF_PERICENTER":80.1952,"MEAN_ANOMALY":279.9198,"EPHEMERIS_TYPE":0,"CLASSIFICATION_TYPE":"U","NORAD_CAT_ID":68097,"ELEMENT_SET_NO":999,"REV_AT_EPOCH":437,"BSTAR":0.0013428947,"MEAN_MOTION_DOT":0.00274384,"MEAN_MOTION_DDOT":0},{"OBJECT_NAME":"GLOBAL-34","OBJECT_ID":"2026-043A","EPOCH":"2026-03-24T00:24:03.657600","MEAN_MOTION":15.31739,"ECCENTRICITY":0.0004651,"INCLINATION":42.0224,"RA_OF_ASC_NODE":352.7925,"ARG_OF_PERICENTER":18.9143,"MEAN_ANOMALY":341.1866,"EPHEMERIS_TYPE":0,"CLASSIFICATION_TYPE":"U","NORAD_CAT_ID":68098,"ELEMENT_SET_NO":999,"REV_AT_EPOCH":276,"BSTAR":0.00040227107,"MEAN_MOTION_DOT":0.00012366,"MEAN_MOTION_DDOT":0},{"OBJECT_NAME":"STARLINK-37022","OBJECT_ID":"2026-044A","EPOCH":"2026-03-24T06:00:02.000160","MEAN_MOTION":15.75258677,"ECCENTRICITY":0.00013987,"INCLINATION":97.2839,"RA_OF_ASC_NODE":44.1014,"ARG_OF_PERICENTER":82.5078,"MEAN_ANOMALY":208.3416,"EPHEMERIS_TYPE":0,"CLASSIFICATION_TYPE":"U","NORAD_CAT_ID":68101,"ELEMENT_SET_NO":999,"REV_AT_EPOCH":374,"BSTAR":-0.0010121986,"MEAN_MOTION_DOT":-0.00148949,"MEAN_MOTION_DDOT":0},{"OBJECT_NAME":"STARLINK-37046","OBJECT_ID":"2026-044B","EPOCH":"2026-03-24T06:00:02.000160","MEAN_MOTION":15.75262933,"ECCENTRICITY":0.00014406,"INCLINATION":97.2841,"RA_OF_ASC_NODE":44.1049,"ARG_OF_PERICENTER":96.7581,"MEAN_ANOMALY":200.0742,"EPHEMERIS_TYPE":0,"CLASSIFICATION_TYPE":"U","NORAD_CAT_ID":68102,"ELEMENT_SET_NO":999,"REV_AT_EPOCH":374,"BSTAR":-0.0008593236,"MEAN_MOTION_DOT":-0.00126822,"MEAN_MOTION_DDOT":0},{"OBJECT_NAME":"STARLINK-37018","OBJECT_ID":"2026-044C","EPOCH":"2026-03-24T06:00:02.000160","MEAN_MOTION":15.75253432,"ECCENTRICITY":0.00015051,"INCLINATION":97.2843,"RA_OF_ASC_NODE":44.1088,"ARG_OF_PERICENTER":100.1731,"MEAN_ANOMALY":204.6639,"EPHEMERIS_TYPE":0,"CLASSIFICATION_TYPE":"U","NORAD_CAT_ID":68103,"ELEMENT_SET_NO":999,"REV_AT_EPOCH":369,"BSTAR":-0.00069974856,"MEAN_MOTION_DOT":-0.00103534,"MEAN_MOTION_DDOT":0},{"OBJECT_NAME":"STARLINK-37041","OBJECT_ID":"2026-044D","EPOCH":"2026-03-24T06:00:02.000160","MEAN_MOTION":15.75253769,"ECCENTRICITY":0.0001343,"INCLINATION":97.2841,"RA_OF_ASC_NODE":44.1113,"ARG_OF_PERICENTER":65.4935,"MEAN_ANOMALY":245.348,"EPHEMERIS_TYPE":0,"CLASSIFICATION_TYPE":"U","NORAD_CAT_ID":68104,"ELEMENT_SET_NO":999,"REV_AT_EPOCH":369,"BSTAR":-0.00076994079,"MEAN_MOTION_DOT":-0.0011377,"MEAN_MOTION_DDOT":0},{"OBJECT_NAME":"STARLINK-37021","OBJECT_ID":"2026-044E","EPOCH":"2026-03-24T06:00:02.000160","MEAN_MOTION":15.75227915,"ECCENTRICITY":0.00014087,"INCLINATION":97.286,"RA_OF_ASC_NODE":44.1129,"ARG_OF_PERICENTER":68.9539,"MEAN_ANOMALY":249.8842,"EPHEMERIS_TYPE":0,"CLASSIFICATION_TYPE":"U","NORAD_CAT_ID":68105,"ELEMENT_SET_NO":999,"REV_AT_EPOCH":369,"BSTAR":-0.00037745639,"MEAN_MOTION_DOT":-0.00056154,"MEAN_MOTION_DDOT":0},{"OBJECT_NAME":"STARLINK-37024","OBJECT_ID":"2026-044F","EPOCH":"2026-03-24T06:00:02.000160","MEAN_MOTION":15.75229722,"ECCENTRICITY":0.00014432,"INCLINATION":97.2844,"RA_OF_ASC_NODE":44.1167,"ARG_OF_PERICENTER":119.4551,"MEAN_ANOMALY":205.3919,"EPHEMERIS_TYPE":0,"CLASSIFICATION_TYPE":"U","NORAD_CAT_ID":68106,"ELEMENT_SET_NO":999,"REV_AT_EPOCH":369,"BSTAR":-0.00040167942,"MEAN_MOTION_DOT":-0.00059729,"MEAN_MOTION_DDOT":0},{"OBJECT_NAME":"STARLINK-37005","OBJECT_ID":"2026-044G","EPOCH":"2026-03-24T06:00:02.000160","MEAN_MOTION":15.75275307,"ECCENTRICITY":8.641e-5,"INCLINATION":97.2841,"RA_OF_ASC_NODE":44.1097,"ARG_OF_PERICENTER":97.6597,"MEAN_ANOMALY":211.1707,"EPHEMERIS_TYPE":0,"CLASSIFICATION_TYPE":"U","NORAD_CAT_ID":68107,"ELEMENT_SET_NO":999,"REV_AT_EPOCH":369,"BSTAR":-0.0010461319,"MEAN_MOTION_DOT":-0.0015395,"MEAN_MOTION_DDOT":0},{"OBJECT_NAME":"STARLINK-37017","OBJECT_ID":"2026-044H","EPOCH":"2026-03-24T06:00:02.000160","MEAN_MOTION":15.7525115,"ECCENTRICITY":0.00016769,"INCLINATION":97.2844,"RA_OF_ASC_NODE":44.1177,"ARG_OF_PERICENTER":61.6109,"MEAN_ANOMALY":265.2309,"EPHEMERIS_TYPE":0,"CLASSIFICATION_TYPE":"U","NORAD_CAT_ID":68108,"ELEMENT_SET_NO":999,"REV_AT_EPOCH":369,"BSTAR":-0.00076365512,"MEAN_MOTION_DOT":-0.00112847,"MEAN_MOTION_DDOT":0},{"OBJECT_NAME":"STARLINK-36833","OBJECT_ID":"2026-044J","EPOCH":"2026-03-24T06:00:02.000160","MEAN_MOTION":15.7524265,"ECCENTRICITY":0.00018487,"INCLINATION":97.2845,"RA_OF_ASC_NODE":44.1197,"ARG_OF_PERICENTER":132.0028,"MEAN_ANOMALY":202.8317,"EPHEMERIS_TYPE":0,"CLASSIFICATION_TYPE":"U","NORAD_CAT_ID":68109,"ELEMENT_SET_NO":999,"REV_AT_EPOCH":374,"BSTAR":-0.00056422692,"MEAN_MOTION_DOT":-0.00083665,"MEAN_MOTION_DDOT":0},{"OBJECT_NAME":"STARLINK-36830","OBJECT_ID":"2026-044K","EPOCH":"2026-03-24T06:00:02.000160","MEAN_MOTION":15.75260417,"ECCENTRICITY":0.00018234,"INCLINATION":97.2844,"RA_OF_ASC_NODE":44.1179,"ARG_OF_PERICENTER":125.1745,"MEAN_ANOMALY":205.6552,"EPHEMERIS_TYPE":0,"CLASSIFICATION_TYPE":"U","NORAD_CAT_ID":68110,"ELEMENT_SET_NO":999,"REV_AT_EPOCH":374,"BSTAR":-0.00084778522,"MEAN_MOTION_DOT":-0.00125139,"MEAN_MOTION_DDOT":0},{"OBJECT_NAME":"STARLINK-36791","OBJECT_ID":"2026-044L","EPOCH":"2026-03-24T06:00:02.000160","MEAN_MOTION":15.75240805,"ECCENTRICITY":0.00014561,"INCLINATION":97.2845,"RA_OF_ASC_NODE":44.1232,"ARG_OF_PERICENTER":94.7256,"MEAN_ANOMALY":248.1188,"EPHEMERIS_TYPE":0,"CLASSIFICATION_TYPE":"U","NORAD_CAT_ID":68111,"ELEMENT_SET_NO":999,"REV_AT_EPOCH":369,"BSTAR":-0.00073598897,"MEAN_MOTION_DOT":-0.00108763,"MEAN_MOTION_DDOT":0},{"OBJECT_NAME":"STARLINK-36893","OBJECT_ID":"2026-044M","EPOCH":"2026-03-24T06:00:02.000160","MEAN_MOTION":15.75245451,"ECCENTRICITY":0.00014593,"INCLINATION":97.2845,"RA_OF_ASC_NODE":44.1248,"ARG_OF_PERICENTER":70.6724,"MEAN_ANOMALY":278.166,"EPHEMERIS_TYPE":0,"CLASSIFICATION_TYPE":"U","NORAD_CAT_ID":68112,"ELEMENT_SET_NO":999,"REV_AT_EPOCH":374,"BSTAR":-0.00076753442,"MEAN_MOTION_DOT":-0.00113381,"MEAN_MOTION_DDOT":0},{"OBJECT_NAME":"STARLINK-36937","OBJECT_ID":"2026-044N","EPOCH":"2026-03-24T06:00:02.000160","MEAN_MOTION":15.75238938,"ECCENTRICITY":0.00015612,"INCLINATION":97.2845,"RA_OF_ASC_NODE":44.1275,"ARG_OF_PERICENTER":88.7179,"MEAN_ANOMALY":266.1233,"EPHEMERIS_TYPE":0,"CLASSIFICATION_TYPE":"U","NORAD_CAT_ID":68113,"ELEMENT_SET_NO":999,"REV_AT_EPOCH":369,"BSTAR":-0.00073082175,"MEAN_MOTION_DOT":-0.00108002,"MEAN_MOTION_DDOT":0}]
