STARLINK-36328          
1 68096U 26042AD  26083.27892303  .00229925  00000+0  11324-2 0  9997
2 68096  53.1578 121.4137 0001262  79.0644 281.0521 15.80975036  4388
STARLINK-36853          
1 68097U 26042AE  26083.21721000  .00274384  00000+0  13429-2 0  9994
2 68097  53.1580 121.7412 0001128  80.1952 279.9198 15.80987498  4377
GLOBAL-34               
1 68098U 26043A   26083.01670900  .00012366  00000+0  40227-3 0  9993
2 68098  42.0224 352.7925 0004651  18.9143 341.1866 15.31739000  2765
STARLINK-37022          
1 68101U 26044A   26083.25002315 -.00148949  00000+0 -10122-2 0  9993
2 68101  97.2839  44.1014 0001398  82.5078 208.3416 15.75258677  3742
STARLINK-37046          
1 68102U 26044B   26083.25002315 -.00126822  00000+0 -85932-3 0  9992
2 68102  97.2841  44.1049 0001440  96.7581 200.0742 15.75262933  3749
STARLINK-37018          
1 68103U 26044C   26083.25002315 -.00103534  00000+0 -69975-3 0  9997
2 68103  97.2843  44.1088 0001505 100.1731 204.6639 15.75253432  3697
STARLINK-37041          
1 68104U 26044D   26083.25002315 -.00113770  00000+0 -76994-3 0  9990
2 68104  97.2841  44.1113 0001343  65.4935 245.3480 15.75253769  3693
STARLINK-37021          
1 68105U 26044E   26083.25002315 -.00056154  00000+0 -37746-3 0  9995
2 68105  97.2860  44.1129 0001408  68.9539 249.8842 15.75227915  3697
STARLINK-37024          
1 68106U 26044F   26083.25002315 -.00059729  00000+0 -40168-3 0  9999
2 68106  97.2844  44.1167 0001443 119.4551 205.3919 15.75229722  3697
STARLINK-37005          
1 68107U 26044G   26083.25002315 -.00153950  00000+0 -10461-2 0  9993
2 68107  97.2841  44.1097 0000864  97.6597 211.1707 15.75275307  3690
STARLINK-37017          
1 68108U 26044H   26083.25002315 -.00112847  00000+0 -76366-3 0  9991
2 68108  97.2844  44.1177 0001676  61.6109 265.2309 15.75251150  3693
STARLINK-36833          
1 68109U 26044J   26083.25002315 -.00083665  00000+0 -56423-3 0  9999
2 68109  97.2845  44.1197 0001848 132.0028 202.8317 15.75242650  3748
STARLINK-36830          
1 68110U 26044K   26083.25002315 -.00125139  00000+0 -84779-3 0  9999
2 68110  97.2844  44.1179 0001823 125.1745 205.6552 15.75260417  3744
STARLINK-36791          
1 68111U 26044L   26083.25002315 -.00108763  00000+0 -73599-3 0  9992
2 68111  97.2845  44.1232 0001456  94.7256 248.1188 15.75240805  3696
STARLINK-36893          
1 68112U 26044M   26083.25002315 -.00113381  00000+0 -76753-3 0  9990
2 68112  97.2845  44.1248 0001459  70.6724 278.1660 15.75245451  3746
STARLINK-36937          
1 68113U 26044N   26083.25002315 -.00108002  00000+0 -73082-3 0  9997
2 68113  97.2845  44.1275 0001561  88.7179 266.1233 15.75238938  3694
